{"fetched_at":"2026-03-30T13:17:50Z","count":15418,"tles":[{"name":"STARLINK-35807","line1":"1 66358U 25254L   26087.88377895  .00023587  00000+0  80584-3 0  9996","line2":"2 66358  53.1595 143.3475 0001924  97.9513 262.1706 15.30204992 21917","category":"Starlink"}]}