{
  "norad_id": 66358,
  "name": "STARLINK-35807",
  "history": [
    {
      "epoch": "2026-03-28T21:12:38.501280Z",
      "apogee_km": 476.51874631806004,
      "perigee_km": 473.88158217725777,
      "latitude_deg": -9.643541439551746e-06,
      "longitude_deg": -1.110757387382729,
      "height_km": 476.2796878295975,
      "semi_major_axis_km": 6853.337164247659,
      "eccentricity": 0.0001924,
      "inclination_deg": 53.1595,
      "raan_deg": 143.3475,
      "arg_perigee_deg": 97.9513,
      "mean_anomaly_deg": 262.1706,
      "mean_motion_rev_day": 15.30204992
    }
  ]
}